RAVAN                   
1 41849U 16067B   19025.85928649  .00000400  00000-0  39025-4 0  9991
2 41849  97.9193 122.9059 0009412 138.8757 221.3175 14.98062962120460
CELTEE 1                
1 41850U 16067C   19025.69299183  .00000086  00000-0  12804-4 0  9995
2 41850  97.9183 121.7597 0009810 135.4913 224.7097 14.96938377120385
OPTICUBE 04             
1 41851U 16067D   19025.68254589  .00000582  00000-0  56194-4 0  9997
2 41851  97.9175 121.5939 0010046 137.1946 223.0059 14.96755656120379
AEROCUBE 8D             
1 41852U 16067E   19025.74175560  .00000782  00000-0  73899-4 0  9999
2 41852  97.9185 121.4814 0010847 138.4935 221.7111 14.96628394120364
AEROCUBE 8C             
1 41853U 16067F   19025.82807809 -.00000002  00000-0  51408-5 0  9996
2 41853  97.9187 121.5165 0010950 138.9941 221.2105 14.96596317120372
PROMETHEUS 2-1          
1 41854U 16067G   19025.88090680  .00000889  00000-0  82918-4 0  9995
2 41854  97.9193 121.6454 0011546 138.8750 221.3343 14.96766814120388
PROMETHEUS 2-3          
1 41855U 16067H   19025.54935374  .00000844  00000-0  79065-4 0  9997
2 41855  97.9196 121.3202 0011668 140.0961 220.1120 14.96768663120333
INS-1B                  
1 41954U 17008G   19025.74501311  .00001097  00000-0  48819-4 0  9999
2 41954  97.4194  92.5651 0007755 296.0286  64.0152 15.23565084107885
BGUSAT                  
1 41999U 17008BD  19025.65936894  .00001806  00000-0  74197-4 0  9992
2 41999  97.4251  94.2788 0006891 314.7822  45.2855 15.25487045107335
DIDO-2                  
1 42000U 17008BE  19025.66892257  .00000764  00000-0  34837-4 0  9990
2 42000  97.4209  93.0099 0007368 319.2230  40.8455 15.23621400107270
PEASSS                  
1 42015U 17008BV  19025.65451692  .00000975  00000-0  42557-4 0  9991
2 42015  97.4212  93.7392 0005413 329.8550  30.2376 15.24513735107800
AL-FARABI 1             
1 42016U 17008BW  19025.97113367  .00001264  00000-0  53458-4 0  9995
2 42016  97.4223  94.4402 0005220 328.3069  31.7854 15.25056155107994
NAYIF-1 (EO-88)         
1 42017U 17008BX  19025.89594497  .00001277  00000-0  53926-4 0  9998
2 42017  97.4221  94.3745 0005230 329.0154  31.0775 15.25085193108008
HAVELSAT                
1 42700U 98067LH  19025.87051643  .00178273  23855-4  41137-3 0  9998
2 42700  51.6220 280.3864 0002639 144.6990 215.4193 15.96850296 97232
CXBN-2                  
1 42704U 98067LM  19025.71510527  .00191686  25677-4  45884-3 0  9996
2 42704  51.6254 283.1919 0002560 171.0006 189.1048 15.96157836 97102
PHOENIX                 
1 42706U 98067LP  19025.78792509  .00057489  00000-0  27247-3 0  9991
2 42706  51.6271 292.0821 0000756 136.7472 223.3590 15.82394423 96982
X-CUBESAT               
1 42707U 98067LQ  19025.88071420  .00596319  19596-3  61970-3 0  9999
2 42707  51.6178 275.7596 0004806 207.2124 152.8639 16.09915802 97198
QBEE50-LTU-OC           
1 42708U 98067LR  19025.90377490  .00205796  28072-4  47195-3 0  9998
2 42708  51.6268 281.3834 0002757 160.6100 199.5013 15.96915896 97086
ALTAIR PATHFINDER       
1 42711U 98067LS  19025.27235180  .00030218  00000-0  23156-3 0  9994
2 42711  51.6338 313.6018 0001897 316.4784  43.6064 15.71835261 96314
SHARC                   
1 42712U 98067LT  19025.83945052  .00075237  00000-0  40601-3 0  9997
2 42712  51.6324 307.6590 0001261 100.4564 259.6580 15.79463959 96681
ZA-AEROSAT              
1 42713U 98067LU  19025.90065335  .00055313  00000-0  28342-3 0  9994
2 42713  51.6337 296.6544 0000194  74.9785 285.1238 15.80723484 96594
CSUNSAT 1               
1 42715U 98067LW  19025.92950079  .00068894  00000-0  31381-3 0  9991
2 42715  51.6312 293.8296 0000348 314.2278  45.8696 15.83170463 96630
SPACECUBE               
1 42717U 98067LY  19025.95878195  .00192165  25777-4  45674-3 0  9995
2 42717  51.6175 281.6398 0002762 150.7551 209.3612 15.96285334 96167
NJUST-1                 
1 42722U 98067MB  19025.80732896  .00035192  00000-0  20668-3 0  9992
2 42722  51.6390 301.2621 0002861  25.6921  14.4796 15.77905955 95592
LILACSAT-1              
1 42725U 98067ME  19025.96081025  .00105268  00000-0  36298-3 0  9991
2 42725  51.6349 289.2831 0002710  41.8339  43.7636 15.88748341 95676
NSIGHT-1                
1 42726U 98067MF  19025.85064800  .00011545  00000-0  11629-3 0  9997
2 42726  51.6387 321.3914 0004541 359.6947   0.4045 15.65916744 95244
SNUSAT-1                
1 42727U 98067MG  19025.91881068  .00105736  00000-0  37646-3 0  9991
2 42727  51.6285 289.8468 0000638   4.6387 355.4624 15.88106139 95624
POLYITAN-2-SAU          
1 42732U 98067MM  19025.93732107  .00557134  16786-3  62278-3 0  9991
2 42732  51.6224 276.9890 0004308 217.8007 142.2705 16.08802995 95688
SNUSAT-1B               
1 42733U 98067MN  19025.91602531  .00136212  18074-4  41052-3 0  9997
2 42733  51.6250 286.0242 0000619 202.3777 157.7202 15.91973985 95564
BEEAGLESAT              
1 42736U 98067MR  19025.97340595  .00071755  00000-0  30877-3 0  9994
2 42736  51.6294 292.5426 0002346  38.6574 321.4597 15.84354755 95540
UCLSAT                  
1 42765U 17036A   19025.87082626  .00001058  00000-0  48765-4 0  9995
2 42765  97.3725  86.8226 0012120  23.3507 336.8277 15.22378998 88586
LITUANICASAT-2          
1 42768U 17036D   19025.64626502  .00001632  00000-0  73888-4 0  9992
2 42768  97.3752  86.1575 0015500  12.5942 347.5679 15.22207768 88397
AALTO-1                 
1 42775U 17036L   19024.75087588  .00000689  00000-0  33991-4 0  9998
2 42775  97.3715  84.7902 0014427  15.5302 344.6373 15.21091140 88171
URSA MAIOR              
1 42776U 17036M   19025.97316642  .00000699  00000-0  34356-4 0  9997
2 42776  97.3721  86.0909 0014086  11.4282 348.7271 15.21208183 88364
COMPASS 2               
1 42777U 17036N   19025.94200618  .00001401  00000-0  63526-4 0  9993
2 42777  97.3752  86.8766 0012908  14.1844 345.9753 15.22415771 88394
DIAMOND RED             
1 42783U 17036U   19024.88129283  .00000819  00000-0  38975-4 0  9992
2 42783  97.3726  85.5649 0012856  26.7355 333.4541 15.21895507 88223
PEGASUS                 
1 42784U 17036V   19025.80672020  .00000953  00000-0  44514-4 0  9993
2 42784  97.3728  86.6257 0012681  23.4286 336.7526 15.22153339 88372
DIAMOND GREEN           
1 42785U 17036W   19025.86632062  .00000722  00000-0  34688-4 0  9997
2 42785  97.3745  86.5511 0013678  19.0461 341.1322 15.21896765 88366
DIAMOND BLUE            
1 42786U 17036X   19025.73383250  .00000824  00000-0  39167-4 0  9996
2 42786  97.3727  86.4196 0012547  24.8452 335.3386 15.21897383 88343
NUDTSAT                 
1 42787U 17036Y   19025.88748075  .00001232  00000-0  55367-4 0  9997
2 42787  97.3760  87.1663 0013213  19.0222 341.1501 15.22952220 88257
SUCHAI                  
1 42788U 17036Z   19025.98142177  .00001144  00000-0  52300-4 0  9996
2 42788  97.3731  87.0057 0012215  22.6633 337.5141 15.22506539 88481
SKCUBE                  
1 42789U 17036AA  19024.80597457  .00001035  00000-0  47685-4 0  9991
2 42789  97.3729  85.8209 0012197  26.7053 333.4809 15.22430386 88228
VZLUSAT-1               
1 42790U 17036AB  19024.88918976  .00001408  00000-0  62859-4 0  9998
2 42790  97.3740  86.1894 0011744  26.3749 333.8083 15.22958585 88259
ROBUSTA-1B              
1 42792U 17036AD  19025.86952973  .00000927  00000-0  42848-4 0  9995
2 42792  97.3749  86.9782 0012828  17.9263 342.2459 15.22591938 88408
CICERO 6                
1 42793U 17036AE  19025.83122987  .00000765  00000-0  36187-4 0  9996
2 42793  97.3715  86.8284 0010979  26.3006 333.8785 15.22301799 88460
D-SAT                   
1 42794U 17036AF  19025.85988765  .00000128  00000-0  16867-4 0  9999
2 42794  97.5618  76.7242 0125258 260.8151  97.8881 14.91008027 86904
TOKI                    
1 42820U 98067MU  19025.95185037  .00071972  00000-0  33273-3 0  9998
2 42820  51.6308 296.9487 0000635 142.2564 217.8483 15.82837673 88946
MAZAALAI (NUMSAT-1)     
1 42822U 98067MW  19025.92949378  .00067671  00000-0  32760-3 0  9994
2 42822  51.6322 298.3329 0000309  77.9363 282.1674 15.81873545 88904
BRAC ONNESHA            
1 42823U 98067MX  19025.95649742  .00069934  00000-0  33047-3 0  9993
2 42823  51.6293 297.7602 0001047 328.5447  31.5492 15.82380135 88911
NIGERIAEDUSAT-1         
1 42824U 98067MY  19025.97139730  .00070223  00000-0  34307-3 0  9990
2 42824  51.6333 298.6722 0001536 356.8969   3.2023 15.81662140 88897
CORVUS BC2              
1 42846U 17042X   19025.68345555  .00000086  00000-0  13777-4 0  9999
2 42846  97.5814 285.2847 0009818 166.4447 193.7038 14.91913631 83543
CORVUS BC1              
1 42847U 17042Y   19025.78046234  .00000160  00000-0  21116-4 0  9992
2 42847  97.5816 285.4612 0009495 165.1652 194.9848 14.92013096 83553
SILU-1 (SILKROAD 1)     
1 42903U 17021F   19025.43930470  .00086572  10860-4  30181-3 0  9999
2 42903  42.7717  48.1455 0014979  88.6727  49.7806 15.88789705 85053
MIRATA                  
1 43015U 17073C   19025.83236989  .00000912  00000-0  77716-4 0  9990
2 43015  97.7172 312.6969 0255052 266.5123  90.6888 14.78663336 64037
MAKERSAT 0              
1 43016U 17073D   19025.75950748  .00000631  00000-0  55518-4 0  9992
2 43016  97.7204 312.8076 0256857 266.9101  90.2695 14.78510533 64019
ASTERIA                 
1 43020U 98067NH  19025.34984667  .00025162  00000-0  25577-3 0  9998
2 43020  51.6428 333.9128 0001351 301.9176  58.1688 15.65010037 67213
DELLINGR (RBLE)         
1 43021U 98067NJ  19025.94172023  .00009396  00000-0  11728-3 0  9994
2 43021  51.6401 337.0413 0001367 284.6443  75.4399 15.60634154 67227
OSIRIS-3U               
1 43027U 98067NL  19025.99015635  .00179826  00000-0  61258-3 0  9999
2 43027  51.6341 307.8567 0002646 157.9422 202.1697 15.88761218 67492
AEROCUBE 7B             
1 43042U 17071F   19024.92567144  .00003436  00000-0  93979-4 0  9990
2 43042  51.6393  40.1682 0004885 357.6552   2.4409 15.40223844 63765
